$$SOE
2459580.500000000, A.D. 2022-Jan-01 00:00:00.0000, -5.103425055060539E+08, 1.074283813012812E+08, 8.453699403049967E+07,
2459587.500000000, A.D. 2022-Jan-08 00:00:00.0000, -5.128438667642034E+08, 9.832374097269475E+07, 8.372253058178911E+07,
2459594.500000000, A.D. 2022-Jan-15 00:00:00.0000, -5.151769689855316E+08, 8.918683621744704E+07, 8.288058939759299E+07,
2459601.500000000, A.D. 2022-Jan-22 00:00:00.0000, -5.173415352318165E+08, 8.002074989603180E+07, 8.201152571124946E+07,
2459608.500000000, A.D. 2022-Jan-29 00:00:00.0000, -5.193373411997324E+08, 7.082855841150609E+07, 8.111570111188777E+07,
2459615.500000000, A.D. 2022-Feb-05 00:00:00.0000, -5.211642168586881E+08, 6.161333027196478E+07, 8.019348351601535E+07,
2459622.500000000, A.D. 2022-Feb-12 00:00:00.0000, -5.228220459136217E+08, 5.237812360928278E+07, 7.924524685702771E+07,
2459629.500000000, A.D. 2022-Feb-19 00:00:00.0000, -5.243107644163786E+08, 4.312598502297015E+07, 7.827137080728298E+07,
2459636.500000000, A.D. 2022-Feb-26 00:00:00.0000, -5.256303598366842E+08, 3.385994902510119E+07, 7.727224059346403E+07,
2459643.500000000, A.D. 2022-Mar-05 00:00:00.0000, -5.267808704338295E+08, 2.458303746852915E+07, 7.624824683985169E+07,
2459650.500000000, A.D. 2022-Mar-12 00:00:00.0000, -5.277623847077006E+08, 1.529825889185813E+07, 7.519978541347368E+07,
2459657.500000000, A.D. 2022-Mar-19 00:00:00.0000, -5.285750408587922E+08, 6.008607808378968E+06, 7.412725726664865E+07,
2459664.500000000, A.D. 2022-Mar-26 00:00:00.0000, -5.292190262358469E+08, -3.282936067584235E+06, 7.303106827422306E+07,
2459671.500000000, A.D. 2022-Apr-02 00:00:00.0000, -5.296945767044092E+08, -1.257340871303280E+07, 7.191162905459219E+07,
2459678.500000000, A.D. 2022-Apr-09 00:00:00.0000, -5.300019756650757E+08, -2.185986280260679E+07, 7.076935474981363E+07,
2459685.500000000, A.D. 2022-Apr-16 00:00:00.0000, -5.301415523647465E+08, -3.113936817489417E+07, 6.960466478534552E+07,
2459692.500000000, A.D. 2022-Apr-23 00:00:00.0000, -5.301136807699762E+08, -4.040901067490608E+07, 6.841798281424494E+07,
2459699.500000000, A.D. 2022-Apr-30 00:00:00.0000, -5.299187808734381E+08, -4.966589161875819E+07, 6.720973683385861E+07,
2459706.500000000, A.D. 2022-May-07 00:00:00.0000, -5.295573193722440E+08, -5.890712985434198E+07, 6.598035903293994E+07,
2459713.500000000, A.D. 2022-May-14 00:00:00.0000, -5.290298083289032E+08, -6.812986337937862E+07, 6.473028549001595E+07,
2459720.500000000, A.D. 2022-May-21 00:00:00.0000, -5.283368038452718E+08, -7.733124975844735E+07, 6.345995597110648E+07,
2459727.500000000, A.D. 2022-May-28 00:00:00.0000, -5.274789052284015E+08, -8.650846629867698E+07, 6.216981379226664E+07,
2459734.500000000, A.D. 2022-Jun-04 00:00:00.0000, -5.264567543718930E+08, -9.565871029753780E+07, 6.086030569600990E+07,
2459741.500000000, A.D. 2022-Jun-11 00:00:00.0000, -5.252710352085903E+08, -1.047791993607790E+08, 5.953188172856969E+07,
2459748.500000000, A.D. 2022-Jun-18 00:00:00.0000, -5.239224731961212E+08, -1.138671717773780E+08, 5.818499511555573E+07,
2459755.500000000, A.D. 2022-Jun-25 00:00:00.0000, -5.224118348059149E+08, -1.229198869848742E+08, 5.682010213061450E+07,
2459762.500000000, A.D. 2022-Jul-02 00:00:00.0000, -5.207399268817215E+08, -1.319346261910574E+08, 5.543766193947092E+07,
2459769.500000000, A.D. 2022-Jul-09 00:00:00.0000, -5.189075954773810E+08, -1.409086929752600E+08, 5.403813639808475E+07,
2459776.500000000, A.D. 2022-Jul-16 00:00:00.0000, -5.169157242288584E+08, -1.498394127867158E+08, 5.262198989854418E+07,
2459783.500000000, A.D. 2022-Jul-23 00:00:00.0000, -5.147652344587314E+08, -1.587241312628827E+08, 5.118968947077713E+07,
2459790.500000000, A.D. 2022-Jul-30 00:00:00.0000, -5.124570869296266E+08, -1.675602147226582E+08, 4.974170485848955E+07,
2459797.500000000, A.D. 2022-Aug-06 00:00:00.0000, -5.099922816488662E+08, -1.763450521867796E+08, 4.827850829251762E+07,
2459804.500000000, A.D. 2022-Aug-13 00:00:00.0000, -5.073718565474020E+08, -1.850760561707612E+08, 4.680057426241086E+07,
2459811.500000000, A.D. 2022-Aug-20 00:00:00.0000, -5.045968866016484E+08, -1.937506627540997E+08, 4.530837938914993E+07,
2459818.500000000, A.D. 2022-Aug-27 00:00:00.0000, -5.016684833299411E+08, -2.023663316532315E+08, 4.380240233350357E+07,
2459825.500000000, A.D. 2022-Sep-03 00:00:00.0000, -4.985877944161249E+08, -2.109205464096443E+08, 4.228312370841853E+07,
2459832.500000000, A.D. 2022-Sep-10 00:00:00.0000, -4.953560033706432E+08, -2.194108146698080E+08, 4.075102598926709E+07,
2459839.500000000, A.D. 2022-Sep-17 00:00:00.0000, -4.919743292000297E+08, -2.278346685591221E+08, 3.920659341914825E+07,
2459846.500000000, A.D. 2022-Sep-24 00:00:00.0000, -4.884440260246084E+08, -2.361896652011987E+08, 3.765031189948276E+07,
2459853.500000000, A.D. 2022-Oct-01 00:00:00.0000, -4.847663824046590E+08, -2.444733874051464E+08, 3.608266884191447E+07,
2459860.500000000, A.D. 2022-Oct-08 00:00:00.0000, -4.809427199678906E+08, -2.526834439989205E+08, 3.450415298658747E+07,
2459867.500000000, A.D. 2022-Oct-15 00:00:00.0000, -4.769743922697796E+08, -2.608174686094286E+08, 3.291525436993010E+07,
2459874.500000000, A.D. 2022-Oct-22 00:00:00.0000, -4.728627860677463E+08, -2.688731185733576E+08, 3.131646450402585E+07,
2459881.500000000, A.D. 2022-Oct-29 00:00:00.0000, -4.686093225111712E+08, -2.768480765726930E+08, 2.970827632613873E+07,
2459888.500000000, A.D. 2022-Nov-05 00:00:00.0000, -4.642154561477695E+08, -2.847400522539701E+08, 2.809118394954149E+07,
2459895.500000000, A.D. 2022-Nov-12 00:00:00.0000, -4.596826737102315E+08, -2.925467825641192E+08, 2.646568249912676E+07,
2459902.500000000, A.D. 2022-Nov-19 00:00:00.0000, -4.550124934016520E+08, -3.002660317578481E+08, 2.483226801952870E+07,
2459909.500000000, A.D. 2022-Nov-26 00:00:00.0000, -4.502064644176112E+08, -3.078955914752284E+08, 2.319143739903928E+07,
2459916.500000000, A.D. 2022-Dec-03 00:00:00.0000, -4.452661665396762E+08, -3.154332809021057E+08, 2.154368829304887E+07,
2459923.500000000, A.D. 2022-Dec-10 00:00:00.0000, -4.401932097556401E+08, -3.228769469951599E+08, 1.988951904431283E+07,
2459930.500000000, A.D. 2022-Dec-17 00:00:00.0000, -4.349892338822244E+08, -3.302244647967091E+08, 1.822942859569265E+07,
2459937.500000000, A.D. 2022-Dec-24 00:00:00.0000, -4.296559080808978E+08, -3.374737379050864E+08, 1.656391637991686E+07,
2459944.500000000, A.D. 2022-Dec-31 00:00:00.0000, -4.241949299089774E+08, -3.446226989930877E+08, 1.489348216231470E+07,
2459951.500000000, A.D. 2023-Jan-07 00:00:00.0000, -4.186080237829013E+08, -3.516693094120825E+08, 1.321862590389520E+07,
2459958.500000000, A.D. 2023-Jan-14 00:00:00.0000, -4.128969408199992E+08, -3.586115573849648E+08, 1.153984786576943E+07,
2459965.500000000, A.D. 2023-Jan-21 00:00:00.0000, -4.070634607028800E+08, -3.654474579611259E+08, 9.857648754738003E+06,
2459972.500000000, A.D. 2023-Jan-28 00:00:00.0000, -4.011093918986602E+08, -3.721750549299085E+08, 8.172529557636797E+06,
2459979.500000000, A.D. 2023-Feb-04 00:00:00.0000, -3.950365704419470E+08, -3.787924216650726E+08, 6.484991331073880E+06,
2459986.500000000, A.D. 2023-Feb-11 00:00:00.0000, -3.888468590764689E+08, -3.852976610935502E+08, 4.795535095472902E+06,
2459993.500000000, A.D. 2023-Feb-18 00:00:00.0000, -3.825421468178957E+08, -3.916889056115123E+08, 3.104661771992713E+06,
2460000.500000000, A.D. 2023-Feb-25 00:00:00.0000, -3.761243486744154E+08, -3.979643171097440E+08, 1.412872125043869E+06,
2460007.500000000, A.D. 2023-Mar-04 00:00:00.0000, -3.695954054225155E+08, -4.041220870898809E+08, -2.793332973539829E+05,
2460014.500000000, A.D. 2023-Mar-11 00:00:00.0000, -3.629572834091432E+08, -4.101604368712686E+08, -1.971454227828205E+06,
2460021.500000000, A.D. 2023-Mar-18 00:00:00.0000, -3.562119743329794E+08, -4.160776179380289E+08, -3.662990756727606E+06,
2460028.500000000, A.D. 2023-Mar-25 00:00:00.0000, -3.493614948012460E+08, -4.218719124735725E+08, -5.353443444350719E+06,
2460035.500000000, A.D. 2023-Apr-01 00:00:00.0000, -3.424078852372313E+08, -4.275416336891320E+08, -7.042313474953592E+06,
2460042.500000000, A.D. 2023-Apr-08 00:00:00.0000, -3.353532087535286E+08, -4.330851247211304E+08, -8.729102695831150E+06,
2460049.500000000, A.D. 2023-Apr-15 00:00:00.0000, -3.281995523272805E+08, -4.385007572033246E+08, -1.041331341741472E+07,
2460056.500000000, A.D. 2023-Apr-22 00:00:00.0000, -3.209490284677011E+08, -4.437869325661209E+08, -1.209444838975304E+07,
2460063.500000000, A.D. 2023-Apr-29 00:00:00.0000, -3.136037746410214E+08, -4.489420838109479E+08, -1.377201102219656E+07,
2460070.500000000, A.D. 2023-May-06 00:00:00.0000, -3.061659522132987E+08, -4.539646759785479E+08, -1.544550553933883E+07,
2460077.500000000, A.D. 2023-May-13 00:00:00.0000, -2.986377458875625E+08, -4.588532062042548E+08, -1.711443705677295E+07,
2460084.500000000, A.D. 2023-May-20 00:00:00.0000, -2.910213634005139E+08, -4.636062038510137E+08, -1.877831163850009E+07,
2460091.500000000, A.D. 2023-May-27 00:00:00.0000, -2.833190352846276E+08, -4.682222307496191E+08, -2.043663635644445E+07,
2460098.500000000, A.D. 2023-Jun-03 00:00:00.0000, -2.755330146376101E+08, -4.726998815205610E+08, -2.208891935558072E+07,
2460105.500000000, A.D. 2023-Jun-10 00:00:00.0000, -2.676655768752834E+08, -4.770377839916606E+08, -2.373466992832661E+07,
2460112.500000000, A.D. 2023-Jun-17 00:00:00.0000, -2.597190193788668E+08, -4.812345997718025E+08, -2.537339861158946E+07,
2460119.500000000, A.D. 2023-Jun-24 00:00:00.0000, -2.516956607166466E+08, -4.852890249249923E+08, -2.700461733152995E+07,
2460126.500000000, A.D. 2023-Jul-01 00:00:00.0000, -2.435978391866207E+08, -4.891997899161516E+08, -2.862783955176798E+07,
2460133.500000000, A.D. 2023-Jul-08 00:00:00.0000, -2.354279123533460E+08, -4.929656580058486E+08, -3.024258020443362E+07,
2460140.500000000, A.D. 2023-Jul-15 00:00:00.0000, -2.271882588544295E+08, -4.965854249234044E+08, -3.184835551835322E+07,
$$EOE